{
  "type": "FeatureCollection",
  "features": [
    {
      "type": "Feature",
      "properties": {
        "norad_id": 31236,
        "name": "FENGYUN 1C DEB",
        "group": "fengyun-1c-debris",
        "lat": -79.76125366284299,
        "lon": 56.41420554199555,
        "alt_km": 1177.387884472846,
        "timestamp": "2025-12-02T15:49:07.471158+00:00",
        "meta_object_name": "FENGYUN 1C DEB",
        "meta_object_id": "1999-025BLS",
        "meta_epoch": "2025-11-29T03:22:17.317344",
        "meta_mean_motion": 13.85531017,
        "meta_eccentricity": 0.03137558,
        "meta_inclination": 98.5443,
        "meta_ra_of_asc_node": 289.5348,
        "meta_arg_of_pericenter": 83.8092,
        "meta_mean_anomaly": 279.8709,
        "meta_ephemeris_type": 0,
        "meta_classification_type": "U",
        "meta_norad_cat_id": 31236,
        "meta_element_set_no": 999,
        "meta_rev_at_epoch": 60836,
        "meta_bstar": 0.0038993191,
        "meta_mean_motion_dot": 6.508e-05,
        "meta_mean_motion_ddot": 0,
        "tle_line1": "1 31236U 99025BLS 25333.14047821  .00006508  00000+0  38993-2 0  9995",
        "tle_line2": "2 31236  98.5443 289.5348 0313755  83.8092 279.8709 13.85531017608362"
      },
      "geometry": {
        "type": "Point",
        "coordinates": [
          56.41420554199555,
          -79.76125366284299
        ]
      }
    },
    {
      "type": "Feature",
      "properties": {
        "norad_id": 31237,
        "name": "FENGYUN 1C DEB",
        "group": "fengyun-1c-debris",
        "lat": -21.457441858124838,
        "lon": -20.858938296315774,
        "alt_km": 743.3203545935867,
        "timestamp": "2025-12-02T15:49:07.471168+00:00",
        "meta_object_name": "FENGYUN 1C DEB",
        "meta_object_id": "1999-025BLT",
        "meta_epoch": "2025-12-01T23:08:28.636512",
        "meta_mean_motion": 14.31330645,
        "meta_eccentricity": 0.00896339,
        "meta_inclination": 98.4534,
        "meta_ra_of_asc_node": 335.1137,
        "meta_arg_of_pericenter": 20.7748,
        "meta_mean_anomaly": 339.7042,
        "meta_ephemeris_type": 0,
        "meta_classification_type": "U",
        "meta_norad_cat_id": 31237,
        "meta_element_set_no": 999,
        "meta_rev_at_epoch": 97112,
        "meta_bstar": 0.00067520468,
        "meta_mean_motion_dot": 1.826e-05,
        "meta_mean_motion_ddot": 0,
        "tle_line1": "1 31237U 99025BLT 25335.96422033  .00001826  00000+0  67520-3 0  9997",
        "tle_line2": "2 31237  98.4534 335.1137 0089633  20.7748 339.7042 14.31330645971129"
      },
      "geometry": {
        "type": "Point",
        "coordinates": [
          -20.858938296315774,
          -21.457441858124838
        ]
      }
    },
    {
      "type": "Feature",
      "properties": {
        "norad_id": 31239,
        "name": "FENGYUN 1C DEB",
        "group": "fengyun-1c-debris",
        "lat": -51.03217538556633,
        "lon": 140.88409608866726,
        "alt_km": 831.5019611161897,
        "timestamp": "2025-12-02T15:49:07.471179+00:00",
        "meta_object_name": "FENGYUN 1C DEB",
        "meta_object_id": "1999-025BLV",
        "meta_epoch": "2025-12-01T12:11:52.585728",
        "meta_mean_motion": 14.09838118,
        "meta_eccentricity": 0.00489334,
        "meta_inclination": 98.758,
        "meta_ra_of_asc_node": 330.7511,
        "meta_arg_of_pericenter": 230.2083,
        "meta_mean_anomaly": 283.6656,
        "meta_ephemeris_type": 0,
        "meta_classification_type": "U",
        "meta_norad_cat_id": 31239,
        "meta_element_set_no": 999,
        "meta_rev_at_epoch": 95853,
        "meta_bstar": 0.00046052055,
        "meta_mean_motion_dot": 7.76e-06,
        "meta_mean_motion_ddot": 0,
        "tle_line1": "1 31239U 99025BLV 25335.50824752  .00000776  00000+0  46052-3 0  9993",
        "tle_line2": "2 31239  98.7580 330.7511 0048933 230.2083 283.6656 14.09838118958531"
      },
      "geometry": {
        "type": "Point",
        "coordinates": [
          140.88409608866726,
          -51.03217538556633
        ]
      }
    },
    {
      "type": "Feature",
      "properties": {
        "norad_id": 31241,
        "name": "FENGYUN 1C DEB",
        "group": "fengyun-1c-debris",
        "lat": -76.02242573768542,
        "lon": 163.52293581895177,
        "alt_km": 753.9502360339375,
        "timestamp": "2025-12-02T15:49:07.471189+00:00",
        "meta_object_name": "FENGYUN 1C DEB",
        "meta_object_id": "1999-025BLX",
        "meta_epoch": "2025-11-28T08:41:49.220736",
        "meta_mean_motion": 14.38600767,
        "meta_eccentricity": 0.00665101,
        "meta_inclination": 99.2336,
        "meta_ra_of_asc_node": 118.0957,
        "meta_arg_of_pericenter": 222.9441,
        "meta_mean_anomaly": 136.6541,
        "meta_ephemeris_type": 0,
        "meta_classification_type": "U",
        "meta_norad_cat_id": 31241,
        "meta_element_set_no": 999,
        "meta_rev_at_epoch": 97484,
        "meta_bstar": 0.00071768195,
        "meta_mean_motion_dot": 2.204e-05,
        "meta_mean_motion_ddot": 0,
        "tle_line1": "1 31241U 99025BLX 25332.36237524  .00002204  00000+0  71768-3 0  9992",
        "tle_line2": "2 31241  99.2336 118.0957 0066510 222.9441 136.6541 14.38600767974848"
      },
      "geometry": {
        "type": "Point",
        "coordinates": [
          163.52293581895177,
          -76.02242573768542
        ]
      }
    },
    {
      "type": "Feature",
      "properties": {
        "norad_id": 31243,
        "name": "FENGYUN 1C DEB",
        "group": "fengyun-1c-debris",
        "lat": -80.78091164504696,
        "lon": 125.61230994062831,
        "alt_km": 860.6247416612487,
        "timestamp": "2025-12-02T15:49:07.471199+00:00",
        "meta_object_name": "FENGYUN 1C DEB",
        "meta_object_id": "1999-025BLZ",
        "meta_epoch": "2025-11-29T08:03:11.163168",
        "meta_mean_motion": 14.07113425,
        "meta_eccentricity": 0.00657341,
        "meta_inclination": 98.7514,
        "meta_ra_of_asc_node": 14.0262,
        "meta_arg_of_pericenter": 205.6354,
        "meta_mean_anomaly": 154.1551,
        "meta_ephemeris_type": 0,
        "meta_classification_type": "U",
        "meta_norad_cat_id": 31243,
        "meta_element_set_no": 999,
        "meta_rev_at_epoch": 69119,
        "meta_bstar": 0.00094741531,
        "meta_mean_motion_dot": 1.574e-05,
        "meta_mean_motion_ddot": 0,
        "tle_line1": "1 31243U 99025BLZ 25333.33554587  .00001574  00000+0  94742-3 0  9999",
        "tle_line2": "2 31243  98.7514  14.0262 0065734 205.6354 154.1551 14.07113425691190"
      },
      "geometry": {
        "type": "Point",
        "coordinates": [
          125.61230994062831,
          -80.78091164504696
        ]
      }
    },
    {
      "type": "Feature",
      "properties": {
        "norad_id": 31244,
        "name": "FENGYUN 1C DEB",
        "group": "fengyun-1c-debris",
        "lat": -35.94158462191216,
        "lon": 46.923224387035454,
        "alt_km": 915.9152630495128,
        "timestamp": "2025-12-02T15:49:07.471209+00:00",
        "meta_object_name": "FENGYUN 1C DEB",
        "meta_object_id": "1999-025BMA",
        "meta_epoch": "2025-11-29T11:08:59.157312",
        "meta_mean_motion": 14.06218558,
        "meta_eccentricity": 0.01023846,
        "meta_inclination": 99.0353,
        "meta_ra_of_asc_node": 37.1115,
        "meta_arg_of_pericenter": 211.8178,
        "meta_mean_anomaly": 147.6779,
        "meta_ephemeris_type": 0,
        "meta_classification_type": "U",
        "meta_norad_cat_id": 31244,
        "meta_element_set_no": 999,
        "meta_rev_at_epoch": 57453,
        "meta_bstar": 0.00052742349,
        "meta_mean_motion_dot": 8.65e-06,
        "meta_mean_motion_ddot": 0,
        "tle_line1": "1 31244U 99025BMA 25333.46457358  .00000865  00000+0  52742-3 0  9998",
        "tle_line2": "2 31244  99.0353  37.1115 0102384 211.8178 147.6779 14.06218558574534"
      },
      "geometry": {
        "type": "Point",
        "coordinates": [
          46.923224387035454,
          -35.94158462191216
        ]
      }
    },
    {
      "type": "Feature",
      "properties": {
        "norad_id": 31247,
        "name": "FENGYUN 1C DEB",
        "group": "fengyun-1c-debris",
        "lat": -63.41079369580816,
        "lon": -116.23813610427024,
        "alt_km": 921.5903591757624,
        "timestamp": "2025-12-02T15:49:07.471230+00:00",
        "meta_object_name": "FENGYUN 1C DEB",
        "meta_object_id": "1999-025BMD",
        "meta_epoch": "2025-11-26T21:58:44.154048",
        "meta_mean_motion": 14.05045725,
        "meta_eccentricity": 0.0058143,
        "meta_inclination": 99.365,
        "meta_ra_of_asc_node": 218.5854,
        "meta_arg_of_pericenter": 105.8084,
        "meta_mean_anomaly": 314.3757,
        "meta_ephemeris_type": 0,
        "meta_classification_type": "U",
        "meta_norad_cat_id": 31247,
        "meta_element_set_no": 999,
        "meta_rev_at_epoch": 95299,
        "meta_bstar": 0.0014532,
        "meta_mean_motion_dot": 2.331e-05,
        "meta_mean_motion_ddot": 0,
        "tle_line1": "1 31247U 99025BMD 25330.91578882  .00002331  00000+0  14532-2 0  9998",
        "tle_line2": "2 31247  99.3650 218.5854 0058143 105.8084 314.3757 14.05045725952998"
      },
      "geometry": {
        "type": "Point",
        "coordinates": [
          -116.23813610427024,
          -63.41079369580816
        ]
      }
    }
  ]
}